[{"OBJECT_NAME":"GLOBALSTAR M090","OBJECT_ID":"2011-080E","EPOCH":"2026-03-09T18:02:24.533376","MEAN_MOTION":12.62271909,"ECCENTRICITY":9.451e-5,"INCLINATION":52.011,"RA_OF_ASC_NODE":271.101,"ARG_OF_PERICENTER":93.3649,"MEAN_ANOMALY":347.2221,"EPHEMERIS_TYPE":0,"CLASSIFICATION_TYPE":"U","NORAD_CAT_ID":38044,"ELEMENT_SET_NO":999,"REV_AT_EPOCH":65715,"BSTAR":0.00010518372,"MEAN_MOTION_DOT":-8.5e-7,"MEAN_MOTION_DDOT":0},{"OBJECT_NAME":"COSMOS 506","OBJECT_ID":"1972-057C","EPOCH":"2026-03-09T17:10:04.164672","MEAN_MOTION":12.56205246,"ECCENTRICITY":0.00731594,"INCLINATION":74.0288,"RA_OF_ASC_NODE":166.0403,"ARG_OF_PERICENTER":199.5565,"MEAN_ANOMALY":275.0954,"EPHEMERIS_TYPE":0,"CLASSIFICATION_TYPE":"U","NORAD_CAT_ID":6119,"ELEMENT_SET_NO":999,"REV_AT_EPOCH":45952,"BSTAR":0.00010930298,"MEAN_MOTION_DOT":2.0e-8,"MEAN_MOTION_DDOT":0}]
